{
  "norad_id": 59773,
  "name": "COSMOS 2576",
  "history": [
    {
      "epoch": "2026-03-28T18:02:09.704544",
      "apogee_km": 485.44233274784256,
      "perigee_km": 476.42951092854764,
      "latitude_deg": 52.5817878157146,
      "longitude_deg": -130.55588383995928,
      "semi_major_axis_km": 6859.072921838195,
      "eccentricity": 0.000657,
      "inclination_deg": 97.427,
      "raan_deg": 204.8678,
      "arg_perigee_deg": 105.598,
      "mean_anomaly_deg": 254.5985,
      "mean_motion_rev_day": 15.2828599
    }
  ]
}